{
  "norad_id": 47798,
  "name": "STARLINK-2379",
  "history": [
    {
      "epoch": "2026-03-28T10:41:44.352672",
      "apogee_km": 548.0573248408,
      "perigee_km": 546.3523056858821,
      "latitude_deg": 49.35334558140572,
      "longitude_deg": 82.5826140800491,
      "semi_major_axis_km": 6925.341815263341,
      "eccentricity": 0.0001231,
      "inclination_deg": 53.0554,
      "raan_deg": 147.4196,
      "arg_perigee_deg": 92.4882,
      "mean_anomaly_deg": 267.6248,
      "mean_motion_rev_day": 15.064022
    }
  ]
}