{"fetched_at":"2026-03-29T16:36:15Z","count":15609,"tles":[{"name":"STARLINK-2379","line1":"1 47798U 21018M   26087.44565223 -.00000433  00000+0 -10181-4 0  9997","line2":"2 47798  53.0554 147.4196 0001231  92.4882 267.6248 15.06402200279701","category":"Starlink"}]}